{
  "norad_id": 55274,
  "name": "STARLINK-5236",
  "history": [
    {
      "epoch": "2026-04-11T20:37:19.390944Z",
      "apogee_km": 573.8067949070382,
      "perigee_km": 570.3080670304889,
      "latitude_deg": -3.1644555524662184e-05,
      "longitude_deg": 151.58109673100495,
      "height_km": 574.2888011659822,
      "semi_major_axis_km": 6950.194430968763,
      "eccentricity": 0.0002517,
      "inclination_deg": 69.9983,
      "raan_deg": 300.9846,
      "arg_perigee_deg": 276.4141,
      "mean_anomaly_deg": 83.6731,
      "mean_motion_rev_day": 14.98329502
    },
    {
      "epoch": "2026-04-13T06:16:08.536224Z",
      "apogee_km": 574.0260564732125,
      "perigee_km": 570.0444417951294,
      "latitude_deg": -1.1994963264517918e-05,
      "longitude_deg": 1.9582987047603777,
      "height_km": 574.3663153047662,
      "semi_major_axis_km": 6950.172249134171,
      "eccentricity": 0.00028644,
      "inclination_deg": 69.9978,
      "raan_deg": 297.4484,
      "arg_perigee_deg": 272.7665,
      "mean_anomaly_deg": 87.3166,
      "mean_motion_rev_day": 14.98336675
    },
    {
      "epoch": "2026-04-14T20:43:22.188864Z",
      "apogee_km": 573.9871730428677,
      "perigee_km": 570.1284248904813,
      "latitude_deg": 8.391401168487298e-06,
      "longitude_deg": 139.5327806852176,
      "height_km": 574.5046585576351,
      "semi_major_axis_km": 6950.194798966674,
      "eccentricity": 0.0002776,
      "inclination_deg": 69.9973,
      "raan_deg": 293.409,
      "arg_perigee_deg": 269.4114,
      "mean_anomaly_deg": 90.6727,
      "mean_motion_rev_day": 14.98329383
    },
    {
      "epoch": "2026-04-15T20:45:23.010624Z",
      "apogee_km": 573.9753490109651,
      "perigee_km": 570.1277246369791,
      "latitude_deg": 1.7337060657830572e-05,
      "longitude_deg": 135.51733855846612,
      "height_km": 574.4818319178752,
      "semi_major_axis_km": 6950.188536823972,
      "eccentricity": 0.0002768,
      "inclination_deg": 69.9984,
      "raan_deg": 290.884,
      "arg_perigee_deg": 269.9051,
      "mean_anomaly_deg": 90.1791,
      "mean_motion_rev_day": 14.98331408
    },
    {
      "epoch": "2026-04-16T14:22:51.698208Z",
      "apogee_km": 573.9291311155912,
      "perigee_km": 570.1774184052756,
      "latitude_deg": 1.4758258332375799e-05,
      "longitude_deg": -131.4278106294986,
      "height_km": 574.5297388662017,
      "semi_major_axis_km": 6950.190274760434,
      "eccentricity": 0.0002699,
      "inclination_deg": 69.9988,
      "raan_deg": 289.0322,
      "arg_perigee_deg": 268.4912,
      "mean_anomaly_deg": 91.5938,
      "mean_motion_rev_day": 14.98330846
    },
    {
      "epoch": "2026-04-17T17:37:08.618592Z",
      "apogee_km": 573.9515560126538,
      "perigee_km": 570.1311819667862,
      "latitude_deg": -1.3576773270111498e-05,
      "longitude_deg": 176.0218528357004,
      "height_km": 574.6848607311416,
      "semi_major_axis_km": 6950.178368989719,
      "eccentricity": 0.00027484,
      "inclination_deg": 69.9987,
      "raan_deg": 286.171,
      "arg_perigee_deg": 263.4963,
      "mean_anomaly_deg": 96.5883,
      "mean_motion_rev_day": 14.98334696
    },
    {
      "epoch": "2026-04-18T17:39:09.722016Z",
      "apogee_km": 573.9628268702354,
      "perigee_km": 570.1499507771259,
      "latitude_deg": 2.6276924134413004e-05,
      "longitude_deg": 172.00524344879173,
      "height_km": 574.5109114866498,
      "semi_major_axis_km": 6950.19338882368,
      "eccentricity": 0.0002743,
      "inclination_deg": 69.9989,
      "raan_deg": 283.646,
      "arg_perigee_deg": 269.1764,
      "mean_anomaly_deg": 90.9081,
      "mean_motion_rev_day": 14.98329839
    },
    {
      "epoch": "2026-04-19T19:17:18.731328Z",
      "apogee_km": 573.9675054434811,
      "perigee_km": 570.143509525863,
      "latitude_deg": 2.0226512017258862e-05,
      "longitude_deg": 143.72137507504246,
      "height_km": 574.502122215501,
      "semi_major_axis_km": 6950.192507484671,
      "eccentricity": 0.0002751,
      "inclination_deg": 69.9987,
      "raan_deg": 280.9525,
      "arg_perigee_deg": 269.4156,
      "mean_anomaly_deg": 90.6688,
      "mean_motion_rev_day": 14.98330124
    },
    {
      "epoch": "2026-04-19T20:53:26.799648Z",
      "apogee_km": 573.9691243838543,
      "perigee_km": 570.1423482632354,
      "latitude_deg": -5.231324819267554e-05,
      "longitude_deg": 119.45352902318099,
      "height_km": 574.5004803958504,
      "semi_major_axis_km": 6950.1927363235445,
      "eccentricity": 0.0002753,
      "inclination_deg": 69.9987,
      "raan_deg": 280.7841,
      "arg_perigee_deg": 269.4723,
      "mean_anomaly_deg": 90.612,
      "mean_motion_rev_day": 14.9833005
    }
  ]
}